GPS BIIA-23 (PRN 18)    
1 22877U 93068A   19135.45324925 -.00000065  00000-0  00000+0 0  9996
2 22877  54.6634  69.8928 0151046  79.4037 115.2547  2.00560037187212
GPS BIIR-2  (PRN 13)    
1 24876U 97035A   19135.57789301  .00000035  00000-0  00000+0 0  9997
2 24876  55.4597 199.7431 0033196  73.6066 286.8306  2.00564548159819
GPS BIIR-3  (PRN 11)    
1 25933U 99055A   19135.41390219 -.00000095  00000-0  00000+0 0  9992
2 25933  52.1055  47.2516 0164093 108.2205  60.2699  2.00559630143637
GPS BIIR-4  (PRN 20)    
1 26360U 00025A   19135.28247319  .00000059  00000-0  00000+0 0  9992
2 26360  53.3249 125.8097 0042294 137.2486 343.0542  2.00561415139311
GPS BIIR-5  (PRN 28)    
1 26407U 00040A   19135.61969602 -.00000052  00000-0  00000+0 0  9998
2 26407  56.2813 317.8668 0192479 275.9305  61.4320  2.00560476138006
GPS BIIR-6  (PRN 14)    
1 26605U 00071A   19135.22999394  .00000036  00000-0  00000+0 0  9991
2 26605  55.0342 197.2173 0108117 249.2734  78.6101  2.00560296135595
GPS BIIR-8  (PRN 16)    
1 27663U 03005A   19135.48338826 -.00000051  00000-0  00000+0 0  9999
2 27663  56.3420 317.6447 0106912  31.9067 327.2464  2.00575676119369
GPS BIIR-9  (PRN 21)    
1 27704U 03010A   19135.28342416 -.00000064  00000-0  00000+0 0  9993
2 27704  54.3382  69.3794 0248855 277.1992 262.1992  2.00555620118167
GPS BIIR-10 (PRN 22)    
1 28129U 03058A   19135.27097436  .00000063  00000-0  00000+0 0  9993
2 28129  53.1368 128.6010 0074650 282.2861  76.8893  2.00547578112866
GPS BIIR-11 (PRN 19)    
1 28190U 04009A   19135.52410812 -.00000090  00000-0  00000+0 0  9994
2 28190  56.2620  18.4230 0093622  79.9546 102.3945  2.00568513111033
GPS BIIR-12 (PRN 23)    
1 28361U 04023A   19135.46714241  .00000047  00000-0  00000+0 0  9997
2 28361  54.0481 191.6094 0133789 231.0650 183.7254  2.00573246109124
GPS BIIR-13 (PRN 02)    
1 28474U 04045A   19135.24979002 -.00000064  00000-0  00000+0 0  9990
2 28474  54.6965  69.1201 0191436 260.3373 358.9743  2.00559512106486
GPS BIIRM-1 (PRN 17)    
1 28874U 05038A   19135.46286635 -.00000088  00000-0  00000+0 0  9990
2 28874  56.3865  15.7739 0130679 262.1406 256.4481  2.00556140 99880
GPS BIIRM-2 (PRN 31)    
1 29486U 06042A   19135.46421344 -.00000050  00000-0  00000+0 0  9993
2 29486  55.0130 254.3512 0092000 358.8372  83.1304  2.00570735 92609
GPS BIIRM-3 (PRN 12)    
1 29601U 06052A   19134.79915789 -.00000044  00000-0  00000+0 0  9992
2 29601  56.3224 316.5881 0074437  61.0023 299.7480  2.00566958 91506
GPS BIIRM-4 (PRN 15)    
1 32260U 07047A   19134.11311542  .00000042  00000-0  00000+0 0  9992
2 32260  53.1713 187.3843 0111340  43.4726 317.4748  2.00561712 84869
GPS BIIRM-5 (PRN 29)    
1 32384U 07062A   19133.82622568 -.00000086  00000-0  00000+0 0  9995
2 32384  56.4698  16.4752 0008110  96.6956 192.4429  2.00554360 83597
GPS BIIRM-6 (PRN 07)    
1 32711U 08012A   19134.51737872 -.00000048  00000-0  00000+0 0  9995
2 32711  54.7529 253.5870 0128237 219.4151 139.6344  2.00554154 81795
GPS BIIRM-8 (PRN 05)    
1 35752U 09043A   19135.20249608  .00000071  00000-0  00000+0 0  9995
2 35752  54.4198 131.2357 0054797  38.6035 120.6463  2.00561799 71395
GPS BIIF-1  (PRN 25)    
1 36585U 10022A   19135.58274997 -.00000053  00000-0  00000+0 0  9990
2 36585  55.6019 312.8807 0082642  50.2753 126.1426  2.00558967 65643
GPS BIIF-2  (PRN 01)    
1 37753U 11036A   19135.46308243 -.00000058  00000-0  00000+0 0  9998
2 37753  55.8941  73.0352 0086598  39.0232 138.0788  2.00566025 57322
GPS BIIF-3  (PRN 24)    
1 38833U 12053A   19135.20476635 -.00000048  00000-0  00000+0 0  9990
2 38833  53.7870 249.7930 0081665  33.4505 327.0528  2.00558010 48388
GPS BIIF-4  (PRN 27)    
1 39166U 13023A   19134.06746665 -.00000085  00000-0  00000+0 0  9995
2 39166  56.0696  12.6149 0069812  26.0441 334.3476  2.00567659 43901
GPS BIIF-5  (PRN 30)    
1 39533U 14008A   19135.05847927 -.00000051  00000-0  00000+0 0  9993
2 39533  53.9194 255.1902 0040471 192.7314 167.1516  2.00572743 38281
GPS BIIF-6  (PRN 06)    
1 39741U 14026A   19134.84603156 -.00000053  00000-0  00000+0 0  9996
2 39741  55.8737  72.5852 0017787 294.2318  65.5573  2.00574564 36563
GPS BIIF-7  (PRN 09)    
1 40105U 14045A   19135.43583500  .00000047  00000-0  00000+0 0  9991
2 40105  54.5745 191.8971 0010162 103.1802 257.0108  2.00562651 35023
GPS BIIF-8  (PRN 03)    
1 40294U 14068A   19134.30364691  .00000081  00000-0  00000+0 0  9996
2 40294  55.1714 132.7998 0020329  27.8476 332.2818  2.00549674 33227
GPS BIIF-9  (PRN 26)    
1 40534U 15013A   19134.94579761 -.00000050  00000-0  00000+0 0  9997
2 40534  54.5308 311.2825 0037048   6.3857 353.6578  2.00571676 30303
GPS BIIF-10  (PRN 08)   
1 40730U 15033A   19135.10463621 -.00000087  00000-0  00000+0 0  9993
2 40730  55.5949  11.9289 0044722 343.5347  16.3641  2.00556331 28063
GPS BIIF-11  (PRN 10)   
1 41019U 15062A   19135.15328182  .00000075  00000-0  00000+0 0  9999
2 41019  55.1730 132.5806 0046463 208.2580 151.5077  2.00564595 25886
GPS BIIF-12  (PRN 32)   
1 41328U 16007A   19135.24911534  .00000046  00000-0  00000+0 0  9999
2 41328  54.8187 192.2852 0031762 219.6905 140.1530  2.00573381 23944
